IONOSFERA-M 3           
1 64876U 25155A   26062.16924891  .00000095  00000+0  63222-4 0  9997
2 64876  98.5911  26.8118 0001879 128.4177 231.7170 14.21464600 31347
IONOSFERA-M 4           
1 64877U 25155B   26062.20423669  .00000098  00000+0  64328-4 0  9991
2 64877  98.5907  26.7644 0001539 109.5490 250.5854 14.21466241 31348
MICROCARB               
1 64899U 25156A   26062.19454418  .00000787  00000+0  13252-3 0  9994
2 64899  97.9894 141.2085 0015193 248.6803 111.2783 14.72190372 32379
CO3D 3                  
1 64900U 25156B   26062.21294656  .00006275  00000+0  29280-3 0  9992
2 64900  97.4331 142.4271 0001446 158.3874 201.7422 15.20196443 33436
CO3D 4                  
1 64901U 25156C   26061.29158243  .00001237  00000+0  60250-4 0  9997
2 64901  97.4334 141.5187 0000254 280.3117  79.8089 15.20203154 33293
CO3D 2                  
1 64902U 25156D   26062.17975683  .00006446  00000+0  30059-3 0  9991
2 64902  97.4333 142.2932 0001362 136.4294 223.7048 15.20209048 33425
CO3D 1                  
1 64903U 25156E   26061.85078972  .00006140  00000+0  28661-3 0  9998
2 64903  97.4328 141.9685 0001072 137.1138 223.0181 15.20191150 33373
SENTINEL-6B             
1 66514U 25264A   26062.13680638 -.00000063  00000+0 -74789-5 0  9992
2 66514  66.0446 355.4471 0008002 270.6946  89.3152 12.80929285 13584
CSG-3                   
1 67304U 26001A   26062.20748749  .00000541  00000+0  74459-4 0  9998
2 67304  97.8861 247.3389 0001365  89.9570 270.1800 14.82164189  8763
