[{"OBJECT_NAME":"IONOSFERA-M 3","OBJECT_ID":"2025-155A","EPOCH":"2026-03-03T04:03:43.105824","MEAN_MOTION":14.214646,"ECCENTRICITY":0.0001879,"INCLINATION":98.5911,"RA_OF_ASC_NODE":26.8118,"ARG_OF_PERICENTER":128.4177,"MEAN_ANOMALY":231.717,"EPHEMERIS_TYPE":0,"CLASSIFICATION_TYPE":"U","NORAD_CAT_ID":64876,"ELEMENT_SET_NO":999,"REV_AT_EPOCH":3134,"BSTAR":6.3222e-5,"MEAN_MOTION_DOT":9.5e-7,"MEAN_MOTION_DDOT":0},{"OBJECT_NAME":"IONOSFERA-M 4","OBJECT_ID":"2025-155B","EPOCH":"2026-03-03T04:54:06.050016","MEAN_MOTION":14.21466241,"ECCENTRICITY":0.0001539,"INCLINATION":98.5907,"RA_OF_ASC_NODE":26.7644,"ARG_OF_PERICENTER":109.549,"MEAN_ANOMALY":250.5854,"EPHEMERIS_TYPE":0,"CLASSIFICATION_TYPE":"U","NORAD_CAT_ID":64877,"ELEMENT_SET_NO":999,"REV_AT_EPOCH":3134,"BSTAR":6.4328e-5,"MEAN_MOTION_DOT":9.8e-7,"MEAN_MOTION_DDOT":0},{"OBJECT_NAME":"MICROCARB","OBJECT_ID":"2025-156A","EPOCH":"2026-03-03T04:40:08.617152","MEAN_MOTION":14.72190372,"ECCENTRICITY":0.0015193,"INCLINATION":97.9894,"RA_OF_ASC_NODE":141.2085,"ARG_OF_PERICENTER":248.6803,"MEAN_ANOMALY":111.2783,"EPHEMERIS_TYPE":0,"CLASSIFICATION_TYPE":"U","NORAD_CAT_ID":64899,"ELEMENT_SET_NO":999,"REV_AT_EPOCH":3237,"BSTAR":0.00013252,"MEAN_MOTION_DOT":7.87e-6,"MEAN_MOTION_DDOT":0},{"OBJECT_NAME":"CO3D 3","OBJECT_ID":"2025-156B","EPOCH":"2026-03-03T05:06:38.582784","MEAN_MOTION":15.20196443,"ECCENTRICITY":0.0001446,"INCLINATION":97.4331,"RA_OF_ASC_NODE":142.4271,"ARG_OF_PERICENTER":158.3874,"MEAN_ANOMALY":201.7422,"EPHEMERIS_TYPE":0,"CLASSIFICATION_TYPE":"U","NORAD_CAT_ID":64900,"ELEMENT_SET_NO":999,"REV_AT_EPOCH":3343,"BSTAR":0.0002928,"MEAN_MOTION_DOT":6.275e-5,"MEAN_MOTION_DDOT":0},{"OBJECT_NAME":"CO3D 4","OBJECT_ID":"2025-156C","EPOCH":"2026-03-02T06:59:52.721952","MEAN_MOTION":15.20203154,"ECCENTRICITY":2.545e-5,"INCLINATION":97.4334,"RA_OF_ASC_NODE":141.5187,"ARG_OF_PERICENTER":280.3117,"MEAN_ANOMALY":79.8089,"EPHEMERIS_TYPE":0,"CLASSIFICATION_TYPE":"U","NORAD_CAT_ID":64901,"ELEMENT_SET_NO":999,"REV_AT_EPOCH":3329,"BSTAR":6.0250155e-5,"MEAN_MOTION_DOT":1.237e-5,"MEAN_MOTION_DDOT":0},{"OBJECT_NAME":"CO3D 2","OBJECT_ID":"2025-156D","EPOCH":"2026-03-03T04:18:50.990112","MEAN_MOTION":15.20209048,"ECCENTRICITY":0.0001362,"INCLINATION":97.4333,"RA_OF_ASC_NODE":142.2932,"ARG_OF_PERICENTER":136.4294,"MEAN_ANOMALY":223.7048,"EPHEMERIS_TYPE":0,"CLASSIFICATION_TYPE":"U","NORAD_CAT_ID":64902,"ELEMENT_SET_NO":999,"REV_AT_EPOCH":3342,"BSTAR":0.00030059,"MEAN_MOTION_DOT":6.446e-5,"MEAN_MOTION_DDOT":0},{"OBJECT_NAME":"CO3D 1","OBJECT_ID":"2025-156E","EPOCH":"2026-03-02T20:25:08.231808","MEAN_MOTION":15.2019115,"ECCENTRICITY":0.0001072,"INCLINATION":97.4328,"RA_OF_ASC_NODE":141.9685,"ARG_OF_PERICENTER":137.1138,"MEAN_ANOMALY":223.0181,"EPHEMERIS_TYPE":0,"CLASSIFICATION_TYPE":"U","NORAD_CAT_ID":64903,"ELEMENT_SET_NO":999,"REV_AT_EPOCH":3337,"BSTAR":0.00028660574,"MEAN_MOTION_DOT":6.14e-5,"MEAN_MOTION_DDOT":0},{"OBJECT_NAME":"SENTINEL-6B","OBJECT_ID":"2025-264A","EPOCH":"2026-03-03T03:17:00.071232","MEAN_MOTION":12.80929285,"ECCENTRICITY":0.0008002,"INCLINATION":66.0446,"RA_OF_ASC_NODE":355.4471,"ARG_OF_PERICENTER":270.6946,"MEAN_ANOMALY":89.3152,"EPHEMERIS_TYPE":0,"CLASSIFICATION_TYPE":"U","NORAD_CAT_ID":66514,"ELEMENT_SET_NO":999,"REV_AT_EPOCH":1358,"BSTAR":-7.4789e-6,"MEAN_MOTION_DOT":-6.3e-7,"MEAN_MOTION_DDOT":0},{"OBJECT_NAME":"CSG-3","OBJECT_ID":"2026-001A","EPOCH":"2026-03-03T04:58:46.919136","MEAN_MOTION":14.82164189,"ECCENTRICITY":0.0001365,"INCLINATION":97.8861,"RA_OF_ASC_NODE":247.3389,"ARG_OF_PERICENTER":89.957,"MEAN_ANOMALY":270.18,"EPHEMERIS_TYPE":0,"CLASSIFICATION_TYPE":"U","NORAD_CAT_ID":67304,"ELEMENT_SET_NO":999,"REV_AT_EPOCH":876,"BSTAR":7.4459e-5,"MEAN_MOTION_DOT":5.41e-6,"MEAN_MOTION_DDOT":0}]
